"SurveyNum","SiteNum","Name","Region","Municipality","ID","lat","long","Sample.Name","AC1359_1","AC1359_2","APR_Cf29_1","APR_Cf29_2","APY_65_1","APY_65_2","NNG_012_1","NNG_012_2"
12,2,"Handumon MPA","Danajon","Getafe",21,10.17643826,124.1775502,"APCL21",240,242,216,218,?,?,?,?
12,2,"Handumon MPA","Danajon","Getafe",27,10.1765814,124.1777415,"APCL27",240,242,?,?,?,?,111,117
12,2,"Handumon MPA","Danajon","Getafe",28,10.1765814,124.1777415,"APCL28",240,246,210,212,?,?,?,?
12,2,"Handumon MPA","Danajon","Getafe",38,10.17673311,124.1781185,"APCL38",242,242,?,?,?,?,111,115
12,2,"Handumon MPA","Danajon","Getafe",39,10.17673311,124.1781185,"APCL39",240,242,229,229,?,?,?,?
12,2,"Handumon MPA","Danajon","Getafe",47,10.17677232,124.1783412,"APCL47",240,240,218,224,?,?,?,?
12,2,"Handumon MPA","Danajon","Getafe",48,10.17698031,124.1785722,"APCL48",240,240,?,?,?,?,?,?
13,7,"Looc","Cebu","Santander",49,9.414452096,123.3125831,"APCL49",240,240,?,?,250,256,?,?
13,7,"Looc","Cebu","Santander",50,9.414452096,123.3125831,"APCL50",240,242,210,216,?,?,?,?
13,7,"Looc","Cebu","Santander",52,9.414417981,123.3125678,"APCL52",240,242,210,210,256,262,?,?
13,7,"Looc","Cebu","Santander",53,9.414321338,123.3125906,"APCL53",240,240,210,229,?,?,?,?
13,7,"Looc","Cebu","Santander",54,9.4143249,123.3127395,"APCL54",240,242,210,210,254,256,?,?
13,7,"Looc","Cebu","Santander",55,9.414363813,123.3127622,"APCL55",242,242,212,212,?,?,111,111
13,7,"Looc","Cebu","Santander",56,9.414326451,123.3127639,"APCL56",240,242,210,212,?,?,?,?
13,7,"Looc","Cebu","Santander",57,9.414326451,123.3127639,"APCL57",240,240,210,212,?,?,115,115
13,7,"Looc","Cebu","Santander",58,9.414298916,123.3128768,"APCL58",242,250,210,210,?,?,?,?
14,7,"Looc","Cebu","Santander",59,9.414151164,123.3137128,"APCL59",240,242,210,214,?,?,?,?
14,7,"Looc","Cebu","Santander",60,9.414151164,123.3137128,"APCL60",?,?,210,212,250,254,?,?
14,7,"Looc","Cebu","Santander",61,9.414039727,123.3136802,"APCL61",240,240,216,229,?,?,?,?
14,7,"Looc","Cebu","Santander",62,9.414039727,123.3136802,"APCL62",250,250,?,?,?,?,?,?
14,7,"Looc","Cebu","Santander",63,9.414038092,123.3136747,"APCL63",240,250,207,210,256,256,?,?
14,7,"Looc","Cebu","Santander",64,9.413968313,123.3136242,"APCL64",242,242,212,218,?,?,115,115
14,7,"Looc","Cebu","Santander",65,9.413953791,123.3136534,"APCL65",240,244,207,209,?,?,?,?
14,7,"Looc","Cebu","Santander",67,9.413871041,123.3137655,"APCL67",242,242,210,210,256,256,?,?
14,7,"Looc","Cebu","Santander",68,9.413871083,123.3137445,"APCL68",240,242,210,210,?,?,?,?
14,7,"Looc","Cebu","Santander",69,9.413822615,123.3140877,"APCL69",240,242,210,218,?,?,?,?
14,7,"Looc","Cebu","Santander",70,9.413822615,123.3140877,"APCL70",?,?,?,?,250,254,?,?
25,8,"Arbor MPA 1","Cebu","Boljoon",124,9.634901786,123.484704,"APCL124",240,244,210,210,?,?,?,?
25,8,"Arbor MPA 1","Cebu","Boljoon",125,9.634901786,123.484704,"APCL125",240,240,210,210,256,256,?,?
25,8,"Arbor MPA 1","Cebu","Boljoon",126,9.635981626,123.4850874,"APCL126",240,242,214,216,?,?,111,115
25,8,"Arbor MPA 1","Cebu","Boljoon",127,9.635981626,123.4850874,"APCL127",240,240,210,229,250,254,115,115
25,8,"Arbor MPA 1","Cebu","Boljoon",128,9.635942923,123.4850802,"APCL128",242,250,210,229,250,254,115,117
25,8,"Arbor MPA 1","Cebu","Boljoon",129,9.635981626,123.4850874,"APCL129",240,242,?,?,?,?,115,115
25,8,"Arbor MPA 1","Cebu","Boljoon",130,9.635981626,123.4850874,"APCL130",240,242,210,210,?,?,115,115
25,8,"Arbor MPA 1","Cebu","Boljoon",131,9.63597469,123.4850896,"APCL131",240,246,212,218,?,?,?,?
25,8,"Arbor MPA 1","Cebu","Boljoon",132,9.636083592,123.4850902,"APCL132",240,240,229,229,?,?,?,?
25,8,"Arbor MPA 1","Cebu","Boljoon",133,9.636081036,123.4850745,"APCL133",242,246,?,?,250,256,111,111
25,8,"Arbor MPA 1","Cebu","Boljoon",134,9.636081036,123.4850745,"APCL134",242,246,209,210,?,?,111,111
25,8,"Arbor MPA 1","Cebu","Boljoon",135,9.636081036,123.4850745,"APCL135",240,242,210,218,?,?,111,111
25,8,"Arbor MPA 1","Cebu","Boljoon",136,9.636081036,123.4850745,"APCL136",240,242,210,218,250,256,111,111
25,8,"Arbor MPA 1","Cebu","Boljoon",139,9.636147399,123.4851389,"APCL139",240,240,210,218,256,256,111,111
25,8,"Arbor MPA 1","Cebu","Boljoon",140,9.636371825,123.4852872,"APCL140",240,240,212,216,?,?,111,115
25,8,"Arbor MPA 1","Cebu","Boljoon",141,9.636560543,123.4853582,"APCL141",242,246,216,229,?,?,115,115
26,8,"Arbor MPA 2","Cebu","Boljoon",142,9.636718899,123.4854225,"APCL142",240,244,210,218,254,256,111,115
26,8,"Arbor MPA 2","Cebu","Boljoon",143,9.636718899,123.4854225,"APCL143",240,242,?,?,254,256,?,?
26,8,"Arbor MPA 2","Cebu","Boljoon",144,9.636765125,123.4854166,"APCL144",240,242,210,210,?,?,111,115
26,8,"Arbor MPA 2","Cebu","Boljoon",145,9.636765125,123.4854166,"APCL145",240,250,210,210,250,250,111,111
19,9,"Lang-tad MPA","Cebu","Argao",88,9.899667939,123.6086093,"APCL88",240,240,214,229,250,254,?,?
19,9,"Lang-tad MPA","Cebu","Argao",89,9.899667939,123.6086093,"APCL89",242,246,210,222,?,?,111,115
19,9,"Lang-tad MPA","Cebu","Argao",90,9.899682754,123.6086295,"APCL90",242,242,209,216,?,?,111,115
19,9,"Lang-tad MPA","Cebu","Argao",91,9.899682754,123.6086295,"APCL91",229,242,?,?,?,?,111,111
19,9,"Lang-tad MPA","Cebu","Argao",92,9.899682754,123.6086295,"APCL92",240,240,?,?,?,?,111,115
19,9,"Lang-tad MPA","Cebu","Argao",93,9.900374869,123.6084625,"APCL93",240,242,210,214,?,?,111,115
19,9,"Lang-tad MPA","Cebu","Argao",94,9.900374869,123.6084625,"APCL94",240,242,212,218,250,256,111,115
19,9,"Lang-tad MPA","Cebu","Argao",95,9.900452045,123.6082719,"APCL95",242,242,210,212,?,?,?,?
19,9,"Lang-tad MPA","Cebu","Argao",96,9.900672405,123.6080943,"APCL96",240,242,210,214,?,?,111,111
19,9,"Lang-tad MPA","Cebu","Argao",97,9.900912526,123.6083074,"APCL97",240,242,210,229,250,254,115,115
20,9,"Poblacion Argao MPA","Cebu","Argao",100,9.87059644,123.6018888,"APCL100",240,240,207,229,?,?,?,?
20,9,"Poblacion Argao MPA","Cebu","Argao",101,9.87064692,123.6018254,"APCL101",240,240,212,229,254,256,?,?
20,9,"Poblacion Argao MPA","Cebu","Argao",102,9.87064692,123.6018254,"APCL102",240,240,210,210,250,256,111,115
20,9,"Poblacion Argao MPA","Cebu","Argao",103,9.869628267,123.5980255,"APCL103",?,?,?,?,256,262,?,?
20,9,"Poblacion Argao MPA","Cebu","Argao",104,9.869628267,123.5980255,"APCL104",240,246,212,216,250,256,111,115
20,9,"Poblacion Argao MPA","Cebu","Argao",105,9.869628267,123.5980255,"APCL105",240,240,210,229,?,?,111,115
20,9,"Poblacion Argao MPA","Cebu","Argao",106,9.869628267,123.5980255,"APCL106",246,250,210,210,?,?,111,115
20,9,"Poblacion Argao MPA","Cebu","Argao",107,9.869392077,123.5973837,"APCL107",240,242,220,229,?,?,111,115
20,9,"Poblacion Argao MPA","Cebu","Argao",108,9.869167769,123.5968019,"APCL108",242,242,212,229,250,250,?,?
21,9,"Tulic MPA","Cebu","Argao",111,9.865211046,123.5883984,"APCL111",240,244,216,218,?,?,115,115
37,10,"Oca–a","Cebu","Carcar",199,10.05841949,123.6385534,"APCL199",240,240,209,229,?,?,?,?
37,10,"Oca–a","Cebu","Carcar",200,10.05841949,123.6385534,"APCL200",242,246,210,210,254,256,111,111
37,10,"Oca–a","Cebu","Carcar",201,10.05841949,123.6385534,"APCL201",240,240,210,216,250,256,111,115
37,10,"Oca–a","Cebu","Carcar",202,10.05837861,123.6385757,"APCL202",240,242,207,220,?,?,?,?
37,10,"Oca–a","Cebu","Carcar",203,10.05837861,123.6385757,"APCL203",240,242,210,218,254,256,111,111
37,10,"Oca–a","Cebu","Carcar",204,10.05837861,123.6385757,"APCL204",240,242,210,216,?,?,111,115
37,10,"Oca–a","Cebu","Carcar",205,10.05837861,123.6385757,"APCL205",240,240,210,218,?,?,111,115
37,10,"Oca–a","Cebu","Carcar",206,10.05859151,123.6386881,"APCL206",?,?,?,?,?,?,?,?
37,10,"Oca–a","Cebu","Carcar",207,10.05859151,123.6386881,"APCL207",240,240,209,212,254,254,?,?
37,10,"Oca–a","Cebu","Carcar",208,10.05913155,123.6385915,"APCL208",240,242,209,210,?,?,?,?
38,10,"Bonbon","Cebu","Carcar",212,10.06561152,123.6413667,"APCL212",240,240,210,212,250,256,115,115
39,10,"Abogon","Cebu","Carcar",217,10.05101374,123.6350463,"APCL217",242,242,210,210,?,?,?,?
39,10,"Abogon","Cebu","Carcar",218,10.05101374,123.6350463,"APCL218",240,244,210,214,250,256,111,115
39,10,"Abogon","Cebu","Carcar",219,10.05181987,123.6352424,"APCL219",240,242,?,?,?,?,?,?
39,10,"Abogon","Cebu","Carcar",220,10.05208141,123.6355666,"APCL220",240,242,210,212,?,?,115,115
40,10,"Lauis Bantayan 1","Cebu","Carcar",221,10.07596761,123.6593001,"APCL221",240,244,210,210,?,?,111,111
40,10,"Lauis Bantayan 1","Cebu","Carcar",222,10.07602364,123.6593172,"APCL222",240,242,210,229,250,256,115,115
40,10,"Lauis Bantayan 1","Cebu","Carcar",223,10.07602364,123.6593172,"APCL223",240,240,229,229,250,250,111,115
40,10,"Lauis Bantayan 1","Cebu","Carcar",224,10.07602364,123.6593172,"APCL224",240,242,201,210,?,?,111,117
40,10,"Lauis Bantayan 1","Cebu","Carcar",225,10.07646533,123.6594767,"APCL225",240,240,210,214,?,?,111,111
31,11,"Macatol","Cebu","Minglanilla",162,10.22717813,123.8195234,"APCL162",240,242,210,212,?,?,115,117
31,11,"Macatol","Cebu","Minglanilla",163,10.2274436,123.8199316,"APCL163",240,240,?,?,?,?,?,?
31,11,"Macatol","Cebu","Minglanilla",165,10.227555,123.8199217,"APCL165",240,240,216,229,?,?,111,117
31,11,"Macatol","Cebu","Minglanilla",166,10.227555,123.8199217,"APCL166",242,242,210,216,?,?,?,?
33,11,"Demi","Cebu","Minglanilla",171,10.22276784,123.7839616,"APCL171",242,242,210,210,248,262,?,?
33,11,"Demi","Cebu","Minglanilla",172,10.22279611,123.783985,"APCL172",242,242,214,218,?,?,111,111
33,11,"Demi","Cebu","Minglanilla",173,10.22279611,123.783985,"APCL173",240,246,?,?,?,?,115,115
33,11,"Demi","Cebu","Minglanilla",176,10.22248116,123.7825489,"APCL176",240,242,210,210,250,256,111,115
33,11,"Demi","Cebu","Minglanilla",177,10.22248116,123.7825489,"APCL177",240,242,210,210,?,?,111,111
34,11,"Macatol 2","Cebu","Minglanilla",182,10.22775575,123.8172531,"APCL182",240,242,210,229,?,?,115,115
35,11,"Katongan","Cebu","Minglanilla",187,10.22506543,123.8048462,"APCL187",240,242,210,218,?,?,111,115
35,11,"Katongan","Cebu","Minglanilla",190,10.22508922,123.8047895,"APCL190",240,240,210,216,250,250,?,?
35,11,"Katongan","Cebu","Minglanilla",191,10.22508922,123.8047895,"APCL191",240,240,207,210,?,?,111,111
35,11,"Katongan","Cebu","Minglanilla",192,10.22508922,123.8047895,"APCL192",240,246,209,218,250,256,115,117
35,11,"Katongan","Cebu","Minglanilla",193,10.22508922,123.8047895,"APCL193",240,242,210,229,?,?,111,115
35,11,"Katongan","Cebu","Minglanilla",194,10.2252326,123.8046048,"APCL194",?,?,?,?,?,?,?,?
35,11,"Katongan","Cebu","Minglanilla",195,10.2252326,123.8046048,"APCL195",240,242,210,214,?,?,111,113
36,11,"Lobog","Cebu","Minglanilla",196,10.2268645,123.7961209,"APCL196",240,240,209,218,256,256,?,?
36,11,"Lobog","Cebu","Minglanilla",197,10.22646353,123.796555,"APCL197",240,240,210,218,?,?,111,111
36,11,"Lobog","Cebu","Minglanilla",198,10.22646353,123.796555,"APCL198",240,240,210,210,250,256,111,111
42,13,"Pantok 1","Cebu","Danao",240,10.55565574,124.0406176,"APCL240",240,242,210,212,?,?,115,115
42,13,"Pantok 1","Cebu","Danao",241,10.55565574,124.0406176,"APCL241",242,244,210,210,256,256,111,111
42,13,"Pantok 1","Cebu","Danao",242,10.55565574,124.0406176,"APCL242",?,?,212,229,?,?,?,?
42,13,"Pantok 1","Cebu","Danao",243,10.55592435,124.040888,"APCL243",240,242,210,229,?,?,?,?
42,13,"Pantok 1","Cebu","Danao",244,10.55706798,124.0408723,"APCL244",240,242,229,229,?,?,111,111
42,13,"Pantok 1","Cebu","Danao",245,10.55712489,124.04077,"APCL245",242,250,210,210,?,?,111,115
42,13,"Pantok 1","Cebu","Danao",246,10.55825498,124.0405153,"APCL246",240,240,207,209,250,256,?,?
42,13,"Pantok 1","Cebu","Danao",247,10.55825498,124.0405153,"APCL247",240,242,210,229,?,?,?,?
42,13,"Pantok 1","Cebu","Danao",248,10.55905554,124.0405115,"APCL248",240,242,216,229,?,?,?,?
42,13,"Pantok 1","Cebu","Danao",249,10.55905554,124.0405115,"APCL249",240,242,210,212,?,?,113,115
42,13,"Pantok 1","Cebu","Danao",250,10.55978581,124.0405327,"APCL250",240,240,210,212,256,256,111,115
42,13,"Pantok 1","Cebu","Danao",251,10.55978581,124.0405327,"APCL251",240,240,210,212,?,?,111,117
42,13,"Pantok 1","Cebu","Danao",252,10.55978581,124.0405327,"APCL252",246,246,212,220,256,256,115,115
43,13,"Pantok 2","Cebu","Danao",253,10.5615466,124.0402441,"APCL253",240,240,212,216,?,?,111,111
43,13,"Pantok 2","Cebu","Danao",254,10.5624569,124.0404172,"APCL254",240,242,210,229,248,256,111,111
43,13,"Pantok 2","Cebu","Danao",255,10.5624569,124.0404172,"APCL255",242,246,212,218,?,?,111,111
43,13,"Pantok 2","Cebu","Danao",256,10.5624569,124.0404172,"APCL256",240,240,210,210,?,?,?,?
43,13,"Pantok 2","Cebu","Danao",257,10.56260775,124.040356,"APCL257",240,244,212,214,?,?,?,?
43,13,"Pantok 2","Cebu","Danao",258,10.56323692,124.0404563,"APCL258",240,240,?,?,?,?,115,115
43,13,"Pantok 2","Cebu","Danao",259,10.56323692,124.0404563,"APCL259",240,242,212,212,256,258,111,115
84,14,"Damolog","Cebu","Sogod",467,10.76505734,124.010425,"APCL467",240,240,?,?,?,?,111,115
84,14,"Damolog","Cebu","Sogod",468,10.76316293,124.0093243,"APCL468",240,240,210,216,250,256,111,115
84,14,"Damolog","Cebu","Sogod",469,10.76316293,124.0093243,"APCL469",?,?,?,?,245,256,?,?
84,14,"Damolog","Cebu","Sogod",470,10.76316293,124.0093243,"APCL470",240,242,212,214,250,256,111,111
84,14,"Damolog","Cebu","Sogod",471,10.76273732,124.0093521,"APCL471",240,240,214,216,248,254,?,?
84,14,"Damolog","Cebu","Sogod",472,10.76273732,124.0093521,"APCL472",240,242,210,229,?,?,111,115
84,14,"Damolog","Cebu","Sogod",473,10.76192008,124.0088574,"APCL473",240,242,210,212,250,256,113,117
84,14,"Damolog","Cebu","Sogod",474,10.76170869,124.0086561,"APCL474",242,246,209,210,?,?,111,111
84,14,"Damolog","Cebu","Sogod",475,10.76175525,124.0086886,"APCL475",240,242,209,210,250,256,111,115
85,14,"Bawo","Cebu","Sogod",476,10.7430305,124.0104489,"APCL476",240,240,210,214,?,?,?,?
85,14,"Bawo","Cebu","Sogod",477,10.74241214,124.0108759,"APCL477",242,242,212,214,?,?,111,115
85,14,"Bawo","Cebu","Sogod",478,10.74212494,124.0111493,"APCL478",240,246,204,214,248,256,115,115
85,14,"Bawo","Cebu","Sogod",479,10.74196373,124.0115173,"APCL479",240,246,210,218,?,?,111,111
85,14,"Bawo","Cebu","Sogod",480,10.74196373,124.0115173,"APCL480",246,246,209,210,?,?,111,115
85,14,"Bawo","Cebu","Sogod",481,10.7408147,124.0115651,"APCL481",242,246,210,210,250,250,111,115
85,14,"Bawo","Cebu","Sogod",482,10.74014867,124.0118398,"APCL482",246,246,210,210,250,254,111,115
85,14,"Bawo","Cebu","Sogod",483,10.74014867,124.0118398,"APCL483",240,244,209,216,?,?,111,115
86,14,"Tabonok","Cebu","Sogod",484,10.78076683,124.029668,"APCL484",240,246,212,216,250,250,115,115
86,14,"Tabonok","Cebu","Sogod",485,10.78076683,124.029668,"APCL485",240,240,210,229,254,256,111,115
86,14,"Tabonok","Cebu","Sogod",486,10.78070116,124.0296458,"APCL486",246,246,210,210,?,?,?,?
87,14,"Damolog 2","Cebu","Sogod",487,10.76825978,124.0137862,"APCL487",240,244,?,?,?,?,111,113
88,15,"Alang-alang MPA","Cebu","Tabogon",488,10.92526024,124.0338769,"APCL488",240,246,?,?,?,?,111,111
88,15,"Alang-alang MPA","Cebu","Tabogon",489,10.92526024,124.0338769,"APCL489",240,246,210,210,256,256,111,115
88,15,"Alang-alang MPA","Cebu","Tabogon",490,10.92519073,124.0338393,"APCL490",240,242,210,216,256,256,115,117
88,15,"Alang-alang MPA","Cebu","Tabogon",491,10.92519073,124.0338393,"APCL491",240,242,210,216,?,?,115,115
88,15,"Alang-alang MPA","Cebu","Tabogon",492,10.92501375,124.0338242,"APCL492",242,246,210,218,?,?,111,111
88,15,"Alang-alang MPA","Cebu","Tabogon",493,10.92501375,124.0338242,"APCL493",240,242,209,212,?,?,115,115
88,15,"Alang-alang MPA","Cebu","Tabogon",494,10.92501375,124.0338242,"APCL494",240,244,209,220,250,256,111,111
88,15,"Alang-alang MPA","Cebu","Tabogon",495,10.92453479,124.0342072,"APCL495",240,240,207,212,250,256,111,113
88,15,"Alang-alang MPA","Cebu","Tabogon",496,10.92453479,124.0342072,"APCL496",240,242,209,210,?,?,115,115
88,15,"Alang-alang MPA","Cebu","Tabogon",497,10.92448343,124.0341253,"APCL497",240,242,218,220,?,?,111,111
88,15,"Alang-alang MPA","Cebu","Tabogon",498,10.92448343,124.0341253,"APCL498",240,240,210,212,?,?,111,115
88,15,"Alang-alang MPA","Cebu","Tabogon",499,10.92448343,124.0341253,"APCL499",240,242,210,229,?,?,111,115
88,15,"Alang-alang MPA","Cebu","Tabogon",500,10.92436811,124.0341841,"APCL500",242,242,210,212,250,254,111,115
88,15,"Alang-alang MPA","Cebu","Tabogon",501,10.92436811,124.0341841,"APCL501",242,244,210,229,?,?,115,115
88,15,"Alang-alang MPA","Cebu","Tabogon",502,10.92436811,124.0341841,"APCL502",240,240,209,218,?,?,111,111
88,15,"Alang-alang MPA","Cebu","Tabogon",503,10.92268834,124.0351073,"APCL503",240,242,210,210,?,?,?,?
88,15,"Alang-alang MPA","Cebu","Tabogon",504,10.92268834,124.0351073,"APCL504",240,242,216,229,250,256,115,115
89,15,"Moabug MPA and Outside","Cebu","Tabogon",506,10.89521872,124.0513711,"APCL506",240,246,?,?,?,?,111,111
89,15,"Moabug MPA and Outside","Cebu","Tabogon",507,10.89493066,124.0514552,"APCL507",240,242,210,210,256,256,111,111
89,15,"Moabug MPA and Outside","Cebu","Tabogon",508,10.89487768,124.0514488,"APCL508",240,240,209,220,256,256,111,111
89,15,"Moabug MPA and Outside","Cebu","Tabogon",509,10.89447514,124.051653,"APCL509",?,?,?,?,?,?,?,?
97,16,"Bagay","Cebu","Daanbantayan",532,11.19209456,124.0473369,"APCL532",240,242,210,210,?,?,111,115
97,16,"Bagay","Cebu","Daanbantayan",533,11.19209456,124.0473369,"APCL533",240,246,210,218,?,?,?,?
97,16,"Bagay","Cebu","Daanbantayan",534,11.19209456,124.0473369,"APCL534",240,242,210,212,?,?,?,?
97,16,"Bagay","Cebu","Daanbantayan",535,11.19231478,124.0473548,"APCL535",240,246,204,207,256,256,115,117
97,16,"Bagay","Cebu","Daanbantayan",536,11.19231478,124.0473548,"APCL536",240,242,210,216,?,?,111,111
97,16,"Bagay","Cebu","Daanbantayan",537,11.19231478,124.0473548,"APCL537",242,242,210,214,?,?,?,?
97,16,"Bagay","Cebu","Daanbantayan",538,11.19316384,124.0476547,"APCL538",242,242,209,216,256,256,?,?
97,16,"Bagay","Cebu","Daanbantayan",539,11.19316384,124.0476547,"APCL539",240,246,216,218,?,?,?,?
97,16,"Bagay","Cebu","Daanbantayan",540,11.19370913,124.0493562,"APCL540",240,242,?,?,?,?,111,111
97,16,"Bagay","Cebu","Daanbantayan",541,11.19384798,124.0493345,"APCL541",240,240,209,210,?,?,111,115
97,16,"Bagay","Cebu","Daanbantayan",542,11.19384798,124.0493345,"APCL542",240,240,209,209,256,256,?,?
97,16,"Bagay","Cebu","Daanbantayan",543,11.1940399,124.0492658,"APCL543",240,242,210,229,250,256,111,115
97,16,"Bagay","Cebu","Daanbantayan",544,11.19566006,124.0493741,"APCL544",240,240,209,218,256,256,115,115
98,16,"Bagay Tacot","Cebu","Daanbantayan",545,11.20737584,124.0609757,"APCL545",?,?,?,?,?,?,?,?
98,16,"Bagay Tacot","Cebu","Daanbantayan",546,11.20742232,124.0609165,"APCL546",240,240,218,229,?,?,111,115
98,16,"Bagay Tacot","Cebu","Daanbantayan",547,11.20777281,124.0611368,"APCL547",240,246,210,210,?,?,111,117
98,16,"Bagay Tacot","Cebu","Daanbantayan",549,11.20781858,124.0610962,"APCL549",240,246,210,216,?,?,111,111
98,16,"Bagay Tacot","Cebu","Daanbantayan",550,11.20785143,124.0611109,"APCL550",?,?,?,?,250,254,?,?
98,16,"Bagay Tacot","Cebu","Daanbantayan",551,11.20815706,124.0611941,"APCL551",242,246,207,212,?,?,115,115
98,16,"Bagay Tacot","Cebu","Daanbantayan",552,11.20815706,124.0611941,"APCL552",240,240,210,210,?,?,111,111
94,17,"Lapus-lapus","Cebu","Daanbantayan",511,11.3474444,124.1050139,"APCL511",240,242,210,229,?,?,111,113
94,17,"Lapus-lapus","Cebu","Daanbantayan",512,11.34746173,124.1050196,"APCL512",240,242,212,229,?,?,111,115
94,17,"Lapus-lapus","Cebu","Daanbantayan",513,11.34746173,124.1050196,"APCL513",242,244,210,229,248,254,111,115
94,17,"Lapus-lapus","Cebu","Daanbantayan",514,11.34746173,124.1050196,"APCL514",240,240,212,218,?,?,111,111
94,17,"Lapus-lapus","Cebu","Daanbantayan",515,11.34753945,124.1050256,"APCL515",240,242,207,222,250,256,111,113
94,17,"Lapus-lapus","Cebu","Daanbantayan",516,11.34769687,124.1050819,"APCL516",242,242,218,229,?,?,111,113
94,17,"Lapus-lapus","Cebu","Daanbantayan",517,11.34782238,124.105182,"APCL517",240,244,207,229,256,256,111,115
94,17,"Lapus-lapus","Cebu","Daanbantayan",518,11.34776687,124.1052771,"APCL518",240,240,229,229,254,260,111,115
94,17,"Lapus-lapus","Cebu","Daanbantayan",519,11.34776687,124.1052771,"APCL519",240,242,209,214,?,?,111,115
94,17,"Lapus-lapus","Cebu","Daanbantayan",520,11.34779414,124.1053006,"APCL520",240,240,216,218,256,256,111,115
94,17,"Lapus-lapus","Cebu","Daanbantayan",521,11.34787509,124.1052355,"APCL521",242,242,?,?,?,?,115,115
94,17,"Lapus-lapus","Cebu","Daanbantayan",522,11.34787509,124.1052355,"APCL522",240,242,209,210,?,?,111,111
94,17,"Lapus-lapus","Cebu","Daanbantayan",523,11.34789782,124.1052194,"APCL523",?,?,?,?,?,?,?,?
94,17,"Lapus-lapus","Cebu","Daanbantayan",524,11.34789782,124.1052194,"APCL524",240,246,212,229,?,?,111,111
94,17,"Lapus-lapus","Cebu","Daanbantayan",525,11.34804103,124.1052679,"APCL525",240,242,209,212,250,256,115,115
94,17,"Lapus-lapus","Cebu","Daanbantayan",526,11.34802143,124.1053318,"APCL526",240,240,204,229,256,256,111,115
94,17,"Lapus-lapus","Cebu","Daanbantayan",527,11.34802143,124.1053318,"APCL527",240,242,201,229,254,256,111,115
94,17,"Lapus-lapus","Cebu","Daanbantayan",528,11.34800737,124.1053363,"APCL528",240,242,210,210,?,?,111,111
94,17,"Lapus-lapus","Cebu","Daanbantayan",529,11.348026,124.1053437,"APCL529",240,242,210,229,250,256,?,?
94,17,"Lapus-lapus","Cebu","Daanbantayan",530,11.3480409,124.1053813,"APCL530",240,240,?,?,250,256,111,115
94,17,"Lapus-lapus","Cebu","Daanbantayan",531,11.3480409,124.1053813,"APCL531",240,240,210,210,256,258,115,117
57,18,"Son-ok MPA","Leyte","Pintuyan",306,9.962226944,125.2236916,"APCL306",240,240,210,212,?,?,111,115
57,18,"Son-ok MPA","Leyte","Pintuyan",307,9.962226944,125.2236916,"APCL307",240,242,218,229,?,?,115,115
57,18,"Son-ok MPA","Leyte","Pintuyan",308,9.962226944,125.2236916,"APCL308",240,246,?,?,?,?,?,?
57,18,"Son-ok MPA","Leyte","Pintuyan",309,9.962260011,125.2237803,"APCL309",240,242,212,218,250,250,111,115
57,18,"Son-ok MPA","Leyte","Pintuyan",310,9.962260011,125.2237803,"APCL310",240,242,?,?,256,256,111,115
57,18,"Son-ok MPA","Leyte","Pintuyan",311,9.962260011,125.2237803,"APCL311",240,242,212,218,250,256,111,115
57,18,"Son-ok MPA","Leyte","Pintuyan",312,9.962267575,125.2237885,"APCL312",246,246,210,218,250,250,111,115
57,18,"Son-ok MPA","Leyte","Pintuyan",313,9.962267575,125.2237885,"APCL313",240,240,212,229,?,?,111,115
57,18,"Son-ok MPA","Leyte","Pintuyan",314,9.962228977,125.223711,"APCL314",242,242,210,210,?,?,?,?
57,18,"Son-ok MPA","Leyte","Pintuyan",315,9.962228977,125.223711,"APCL315",240,242,209,212,?,?,?,?
57,18,"Son-ok MPA","Leyte","Pintuyan",316,9.962228977,125.223711,"APCL316",?,?,?,?,?,?,?,?
57,18,"Son-ok MPA","Leyte","Pintuyan",317,9.962228977,125.223711,"APCL317",240,240,212,216,?,?,111,115
57,18,"Son-ok MPA","Leyte","Pintuyan",318,9.962226944,125.2236916,"APCL318",240,242,210,210,254,256,?,?
57,18,"Son-ok MPA","Leyte","Pintuyan",319,9.962166573,125.223654,"APCL319",?,?,218,229,254,256,?,?
57,18,"Son-ok MPA","Leyte","Pintuyan",320,9.962166573,125.223654,"APCL320",?,?,?,?,256,256,?,?
57,18,"Son-ok MPA","Leyte","Pintuyan",321,9.962428235,125.2238611,"APCL321",?,?,?,?,?,?,?,?
57,18,"Son-ok MPA","Leyte","Pintuyan",322,9.962527624,125.2240028,"APCL322",242,250,210,216,?,?,?,?
55,19,"Tangkaan Beach 1","Leyte","Padre Burgos",286,10.00742422,125.0293438,"APCL286",242,244,199,218,250,250,?,?
55,19,"Tangkaan Beach 1","Leyte","Padre Burgos",287,10.00742422,125.0293438,"APCL287",242,242,?,?,250,254,111,115
55,19,"Tangkaan Beach 1","Leyte","Padre Burgos",288,10.00748059,125.0293675,"APCL288",?,?,210,212,?,?,115,115
55,19,"Tangkaan Beach 1","Leyte","Padre Burgos",289,10.0074527,125.0293585,"APCL289",240,242,207,212,?,?,111,115
55,19,"Tangkaan Beach 1","Leyte","Padre Burgos",290,10.00743172,125.0293767,"APCL290",?,?,?,?,250,256,?,?
55,19,"Tangkaan Beach 1","Leyte","Padre Burgos",291,10.0074527,125.0293585,"APCL291",240,242,209,210,?,?,111,115
55,19,"Tangkaan Beach 1","Leyte","Padre Burgos",292,10.00743143,125.0293255,"APCL292",240,240,?,?,256,260,111,115
55,19,"Tangkaan Beach 1","Leyte","Padre Burgos",293,10.00732764,125.0293198,"APCL293",240,242,210,214,250,258,111,111
55,19,"Tangkaan Beach 1","Leyte","Padre Burgos",294,10.00732764,125.0293198,"APCL294",240,240,212,229,250,250,111,111
55,19,"Tangkaan Beach 1","Leyte","Padre Burgos",295,10.00725174,125.0293403,"APCL295",240,242,?,?,?,?,?,?
55,19,"Tangkaan Beach 1","Leyte","Padre Burgos",296,10.00725174,125.0293403,"APCL296",240,240,210,216,?,?,111,111
55,19,"Tangkaan Beach 1","Leyte","Padre Burgos",297,10.00725174,125.0293403,"APCL297",240,240,212,229,?,?,115,115
55,19,"Tangkaan Beach 1","Leyte","Padre Burgos",298,10.00721186,125.0294417,"APCL298",240,240,210,229,250,256,111,115
55,19,"Tangkaan Beach 1","Leyte","Padre Burgos",299,10.00726111,125.0294427,"APCL299",242,242,210,210,?,?,111,111
55,19,"Tangkaan Beach 1","Leyte","Padre Burgos",300,10.00723422,125.0294126,"APCL300",240,242,209,210,?,?,115,115
55,19,"Tangkaan Beach 1","Leyte","Padre Burgos",301,10.00740201,125.0293329,"APCL301",242,246,212,229,254,256,?,?
55,19,"Tangkaan Beach 1","Leyte","Padre Burgos",302,10.00748059,125.0293675,"APCL302",240,240,210,229,254,256,?,?
55,19,"Tangkaan Beach 1","Leyte","Padre Burgos",303,10.0075762,125.0293051,"APCL303",240,242,210,218,?,?,111,111
55,19,"Tangkaan Beach 1","Leyte","Padre Burgos",304,10.00757321,125.0293927,"APCL304",242,250,220,229,?,?,111,111
55,19,"Tangkaan Beach 1","Leyte","Padre Burgos",305,10.0077495,125.0292983,"APCL305",242,246,207,207,?,?,?,?
49,20,"Guadalupe MPA 1","Leyte","Maasin",264,10.17317677,124.7494457,"APCL264",240,240,210,210,?,?,?,?
49,20,"Guadalupe MPA 1","Leyte","Maasin",265,10.17317677,124.7494457,"APCL265",240,240,?,?,?,?,111,111
49,20,"Guadalupe MPA 1","Leyte","Maasin",266,10.17317677,124.7494457,"APCL266",240,244,210,212,?,?,111,115
49,20,"Guadalupe MPA 1","Leyte","Maasin",267,10.17313321,124.7495348,"APCL267",240,242,210,210,?,?,111,115
49,20,"Guadalupe MPA 1","Leyte","Maasin",268,10.17313321,124.7495348,"APCL268",242,242,209,212,248,250,111,111
49,20,"Guadalupe MPA 1","Leyte","Maasin",269,10.17317591,124.7496487,"APCL269",240,240,210,212,?,?,115,115
49,20,"Guadalupe MPA 1","Leyte","Maasin",270,10.17317591,124.7496487,"APCL270",240,240,210,229,?,?,?,?
49,20,"Guadalupe MPA 1","Leyte","Maasin",271,10.17317591,124.7496487,"APCL271",240,244,204,210,250,256,111,111
49,20,"Guadalupe MPA 1","Leyte","Maasin",272,10.17317591,124.7496487,"APCL272",240,242,212,216,256,258,111,111
49,20,"Guadalupe MPA 1","Leyte","Maasin",273,10.17317591,124.7496487,"APCL273",240,242,210,216,256,256,115,115
49,20,"Guadalupe MPA 1","Leyte","Maasin",274,10.17317591,124.7496487,"APCL274",242,246,210,222,256,256,111,113
49,20,"Guadalupe MPA 1","Leyte","Maasin",275,10.17321173,124.7496949,"APCL275",240,240,?,?,248,256,111,111
50,20,"Guadalupe MPA 2","Leyte","Maasin",279,10.17266263,124.7508512,"APCL279",?,?,?,?,?,?,?,?
50,20,"Guadalupe MPA 2","Leyte","Maasin",280,10.17251429,124.751057,"APCL280",242,242,209,212,?,?,?,?
50,20,"Guadalupe MPA 2","Leyte","Maasin",281,10.17248424,124.7510484,"APCL281",242,246,209,212,250,254,?,?
50,20,"Guadalupe MPA 2","Leyte","Maasin",282,10.1724895,124.7510914,"APCL282",?,?,?,?,?,?,?,?
50,20,"Guadalupe MPA 2","Leyte","Maasin",283,10.1724895,124.7510914,"APCL283",242,246,212,229,?,?,115,115
50,20,"Guadalupe MPA 2","Leyte","Maasin",284,10.1724895,124.7510914,"APCL284",240,242,210,212,?,?,111,111
50,20,"Guadalupe MPA 2","Leyte","Maasin",285,10.17142982,124.7509995,"APCL285",242,244,199,218,?,?,111,115
60,22,"Apid MPA","Leyte","Inopacan",343,10.53992839,124.6387161,"APCL343",240,242,209,210,250,256,?,?
60,22,"Apid MPA","Leyte","Inopacan",344,10.54031675,124.6382605,"APCL344",240,240,210,218,?,?,?,?
60,22,"Apid MPA","Leyte","Inopacan",345,10.54031675,124.6382605,"APCL345",242,244,210,216,?,?,111,115
60,22,"Apid MPA","Leyte","Inopacan",346,10.54037959,124.6382342,"APCL346",240,242,?,?,250,256,111,111
60,22,"Apid MPA","Leyte","Inopacan",347,10.54037959,124.6382342,"APCL347",240,246,216,229,256,256,111,115
60,22,"Apid MPA","Leyte","Inopacan",348,10.5403661,124.6378422,"APCL348",242,246,209,229,?,?,115,115
60,22,"Apid MPA","Leyte","Inopacan",349,10.5403661,124.6378422,"APCL349",240,240,209,212,?,?,?,?
60,22,"Apid MPA","Leyte","Inopacan",350,10.54035264,124.6378333,"APCL350",?,?,?,?,?,?,?,?
60,22,"Apid MPA","Leyte","Inopacan",351,10.54035264,124.6378333,"APCL351",242,246,210,210,?,?,111,115
60,22,"Apid MPA","Leyte","Inopacan",352,10.54035264,124.6378333,"APCL352",242,242,210,210,?,?,111,115
60,22,"Apid MPA","Leyte","Inopacan",353,10.54046157,124.6377821,"APCL353",240,240,210,212,?,?,111,111
60,22,"Apid MPA","Leyte","Inopacan",354,10.54044141,124.6377668,"APCL354",240,240,210,210,256,256,111,111
60,22,"Apid MPA","Leyte","Inopacan",355,10.54044141,124.6377668,"APCL355",240,242,209,210,256,256,?,?
60,22,"Apid MPA","Leyte","Inopacan",356,10.54022685,124.6380203,"APCL356",240,242,212,212,256,256,115,117
60,22,"Apid MPA","Leyte","Inopacan",357,10.54022685,124.6380203,"APCL357",240,244,?,?,?,?,111,111
60,22,"Apid MPA","Leyte","Inopacan",358,10.54022685,124.6380203,"APCL358",246,246,210,212,250,256,111,115
60,22,"Apid MPA","Leyte","Inopacan",359,10.53931865,124.6395728,"APCL359",242,246,210,212,?,?,111,111
60,22,"Apid MPA","Leyte","Inopacan",360,10.53931865,124.6395728,"APCL360",242,244,210,229,?,?,?,?
60,22,"Apid MPA","Leyte","Inopacan",361,10.53920625,124.6394869,"APCL361",240,250,209,218,?,?,?,?
60,22,"Apid MPA","Leyte","Inopacan",362,10.53874849,124.6403327,"APCL362",240,240,210,212,?,?,?,?
63,22,"Conalum","Leyte","Inopacan",365,10.53092418,124.7519108,"APCL365",240,246,229,229,?,?,111,115
63,22,"Conalum","Leyte","Inopacan",366,10.53092418,124.7519108,"APCL366",242,242,210,229,?,?,115,115
63,22,"Conalum","Leyte","Inopacan",367,10.53095795,124.7520643,"APCL367",244,246,209,210,250,256,111,115
63,22,"Conalum","Leyte","Inopacan",368,10.53095795,124.7520643,"APCL368",240,246,210,218,?,?,111,115
63,22,"Conalum","Leyte","Inopacan",369,10.53095795,124.7520643,"APCL369",240,240,212,212,?,?,111,115
63,22,"Conalum","Leyte","Inopacan",370,10.53085282,124.7521499,"APCL370",240,240,210,214,250,256,111,115
63,22,"Conalum","Leyte","Inopacan",371,10.53085282,124.7521499,"APCL371",240,240,?,?,?,?,111,115
63,22,"Conalum","Leyte","Inopacan",372,10.53085282,124.7521499,"APCL372",240,242,?,?,250,256,?,?
63,22,"Conalum","Leyte","Inopacan",373,10.53308258,124.7527804,"APCL373",240,240,?,?,?,?,111,115
63,22,"Conalum","Leyte","Inopacan",374,10.53308258,124.7527804,"APCL374",240,242,207,212,250,250,111,111
63,22,"Conalum","Leyte","Inopacan",375,10.53323044,124.752947,"APCL375",240,240,218,224,248,256,?,?
63,22,"Conalum","Leyte","Inopacan",376,10.53323044,124.752947,"APCL376",242,246,216,229,254,254,?,?
63,22,"Conalum","Leyte","Inopacan",377,10.53322844,124.7529715,"APCL377",240,240,210,210,?,?,?,?
63,22,"Conalum","Leyte","Inopacan",378,10.53322844,124.7529715,"APCL378",240,242,210,229,?,?,?,?
68,23,"Punta Lauis","Leyte","Baybay",399,10.64131589,124.7786885,"APCL399",240,240,209,229,?,?,?,?
68,23,"Punta Lauis","Leyte","Baybay",400,10.6416404,124.7781182,"APCL400",240,246,210,229,?,?,?,?
68,23,"Punta Lauis","Leyte","Baybay",401,10.6417637,124.7778811,"APCL401",240,242,210,210,?,?,?,?
69,23,"Visca","Leyte","Baybay",402,10.74341604,124.7866797,"APCL402",240,240,209,229,?,?,?,?
69,23,"Visca","Leyte","Baybay",403,10.74341604,124.7866797,"APCL403",240,246,210,214,256,258,?,?
69,23,"Visca","Leyte","Baybay",404,10.74363722,124.7864826,"APCL404",240,242,212,229,?,?,111,111
69,23,"Visca","Leyte","Baybay",405,10.74374581,124.7864271,"APCL405",240,240,216,229,254,256,115,115
69,23,"Visca","Leyte","Baybay",406,10.74374581,124.7864271,"APCL406",240,240,207,210,250,262,111,115
69,23,"Visca","Leyte","Baybay",407,10.74374581,124.7864271,"APCL407",240,242,212,229,?,?,111,111
69,23,"Visca","Leyte","Baybay",408,10.74374581,124.7864271,"APCL408",240,242,?,?,254,256,111,115
69,23,"Visca","Leyte","Baybay",409,10.74374581,124.7864271,"APCL409",240,242,209,229,?,?,?,?
69,23,"Visca","Leyte","Baybay",410,10.74378189,124.7863166,"APCL410",240,240,?,?,?,?,111,115
69,23,"Visca","Leyte","Baybay",411,10.74388327,124.7863005,"APCL411",240,240,?,?,?,?,111,115
69,23,"Visca","Leyte","Baybay",412,10.74388327,124.7863005,"APCL412",242,242,210,210,?,?,111,115
69,23,"Visca","Leyte","Baybay",413,10.74388327,124.7863005,"APCL413",240,240,210,212,?,?,?,?
69,23,"Visca","Leyte","Baybay",414,10.74463186,124.786136,"APCL414",240,242,210,218,250,250,115,115
69,23,"Visca","Leyte","Baybay",416,10.74463186,124.786136,"APCL416",240,240,?,?,?,?,115,115
69,23,"Visca","Leyte","Baybay",417,10.74463186,124.786136,"APCL417",240,240,210,212,250,258,111,115
69,23,"Visca","Leyte","Baybay",418,10.74477257,124.786004,"APCL418",?,?,?,?,?,?,?,?
64,24,"Cabatoan MPA","Leyte","Albuera",379,10.85530733,124.7269424,"APCL379",240,240,210,229,250,256,?,?
64,24,"Cabatoan MPA","Leyte","Albuera",380,10.85519979,124.7267864,"APCL380",?,?,?,?,?,?,?,?
64,24,"Cabatoan MPA","Leyte","Albuera",381,10.85566542,124.7268983,"APCL381",240,242,?,?,?,?,111,115
64,24,"Cabatoan MPA","Leyte","Albuera",382,10.85598356,124.7263675,"APCL382",240,240,210,214,?,?,?,?
64,24,"Cabatoan MPA","Leyte","Albuera",383,10.85598356,124.7263675,"APCL383",240,246,216,218,?,?,111,115
64,24,"Cabatoan MPA","Leyte","Albuera",384,10.85598356,124.7263675,"APCL384",240,240,210,229,?,?,111,111
66,24,"Palanas MPA","Leyte","Albuera",385,10.87289776,124.7118147,"APCL385",240,240,210,218,254,256,111,111
66,24,"Palanas MPA","Leyte","Albuera",386,10.87282748,124.7117044,"APCL386",?,?,?,?,250,256,?,?
66,24,"Palanas MPA","Leyte","Albuera",387,10.87362964,124.7117,"APCL387",240,240,?,?,250,256,115,115
66,24,"Palanas MPA","Leyte","Albuera",388,10.87362964,124.7117,"APCL388",240,242,210,210,256,258,115,115
66,24,"Palanas MPA","Leyte","Albuera",389,10.87352927,124.7121423,"APCL389",240,246,209,210,?,?,115,115
66,24,"Palanas MPA","Leyte","Albuera",390,10.87337957,124.7121776,"APCL390",240,242,210,212,256,256,?,?
66,24,"Palanas MPA","Leyte","Albuera",391,10.87337957,124.7121776,"APCL391",240,240,?,?,?,?,111,111
66,24,"Palanas MPA","Leyte","Albuera",392,10.87327855,124.7121438,"APCL392",240,242,210,229,?,?,?,?
66,24,"Palanas MPA","Leyte","Albuera",393,10.8731266,124.7121533,"APCL393",240,240,212,229,248,256,111,115
66,24,"Palanas MPA","Leyte","Albuera",394,10.87291509,124.7121188,"APCL394",240,246,210,210,250,256,?,?
66,24,"Palanas MPA","Leyte","Albuera",395,10.87291509,124.7121188,"APCL395",240,246,207,210,248,250,111,115
66,24,"Palanas MPA","Leyte","Albuera",396,10.87291509,124.7121188,"APCL396",240,242,210,212,?,?,111,115
66,24,"Palanas MPA","Leyte","Albuera",397,10.87304176,124.7122085,"APCL397",240,242,209,210,?,?,111,115
66,24,"Palanas MPA","Leyte","Albuera",398,10.87311487,124.7122623,"APCL398",240,240,216,218,250,254,111,111
79,25,"Macabog MPA","Leyte","Ormoc",445,10.9552851,124.6494013,"APCL445",240,240,209,210,?,?,111,111
79,25,"Macabog MPA","Leyte","Ormoc",446,10.95527841,124.6493702,"APCL446",240,246,210,212,?,?,?,?
79,25,"Macabog MPA","Leyte","Ormoc",447,10.95527841,124.6493702,"APCL447",240,240,210,210,?,?,111,115
79,25,"Macabog MPA","Leyte","Ormoc",448,10.95530846,124.6493743,"APCL448",240,242,210,216,?,?,111,111
79,25,"Macabog MPA","Leyte","Ormoc",449,10.95530362,124.6493289,"APCL449",240,240,210,229,?,?,?,?
79,25,"Macabog MPA","Leyte","Ormoc",450,10.95530362,124.6493289,"APCL450",240,242,212,216,254,256,115,115
79,25,"Macabog MPA","Leyte","Ormoc",451,10.95529729,124.6493062,"APCL451",240,242,?,?,?,?,?,?
79,25,"Macabog MPA","Leyte","Ormoc",452,10.95530438,124.6493585,"APCL452",240,242,210,218,250,260,111,115
79,25,"Macabog MPA","Leyte","Ormoc",453,10.95530438,124.6493585,"APCL453",240,244,209,216,250,256,115,115
79,25,"Macabog MPA","Leyte","Ormoc",454,10.95555349,124.6489844,"APCL454",242,242,210,212,248,260,111,115
79,25,"Macabog MPA","Leyte","Ormoc",455,10.95565436,124.6488972,"APCL455",240,242,210,212,?,?,115,115
79,25,"Macabog MPA","Leyte","Ormoc",456,10.95565436,124.6488972,"APCL456",242,244,212,220,254,256,?,?
79,25,"Macabog MPA","Leyte","Ormoc",457,10.95562964,124.6488645,"APCL457",240,242,210,210,?,?,115,115
79,25,"Macabog MPA","Leyte","Ormoc",458,10.95565321,124.6488187,"APCL458",240,240,?,?,250,250,111,111
79,25,"Macabog MPA","Leyte","Ormoc",459,10.95565321,124.6488187,"APCL459",240,242,229,229,?,?,111,117
79,25,"Macabog MPA","Leyte","Ormoc",460,10.95525266,124.6493755,"APCL460",240,240,218,229,?,?,?,?
79,25,"Macabog MPA","Leyte","Ormoc",461,10.95525266,124.6493755,"APCL461",240,242,209,218,?,?,111,115
79,25,"Macabog MPA","Leyte","Ormoc",462,10.95525266,124.6493755,"APCL462",242,244,209,210,?,?,?,?
79,25,"Macabog MPA","Leyte","Ormoc",463,10.95525266,124.6493755,"APCL463",240,240,210,210,?,?,?,?
79,25,"Macabog MPA","Leyte","Ormoc",464,10.95525266,124.6493755,"APCL464",240,240,212,218,?,?,111,111
73,27,"Tabuk MPA 1","Leyte","Palompon",419,11.04136932,124.3687451,"APCL419",240,246,207,216,?,?,111,111
73,27,"Tabuk MPA 1","Leyte","Palompon",420,11.04136932,124.3687451,"APCL420",240,242,210,218,254,254,115,115
73,27,"Tabuk MPA 1","Leyte","Palompon",421,11.0414449,124.3689021,"APCL421",240,242,218,229,?,?,111,113
73,27,"Tabuk MPA 1","Leyte","Palompon",422,11.0414449,124.3689021,"APCL422",240,240,210,210,250,256,?,?
73,27,"Tabuk MPA 1","Leyte","Palompon",423,11.04161279,124.3690207,"APCL423",240,240,201,218,248,250,111,115
73,27,"Tabuk MPA 1","Leyte","Palompon",424,11.04161279,124.3690207,"APCL424",240,242,209,210,250,254,?,?
73,27,"Tabuk MPA 1","Leyte","Palompon",425,11.04167413,124.3691435,"APCL425",240,240,210,212,256,256,111,115
73,27,"Tabuk MPA 1","Leyte","Palompon",426,11.04167413,124.3691435,"APCL426",240,246,209,212,?,?,115,115
73,27,"Tabuk MPA 1","Leyte","Palompon",427,11.04215843,124.3689012,"APCL427",?,?,?,?,250,262,?,?
73,27,"Tabuk MPA 1","Leyte","Palompon",428,11.04269014,124.3674749,"APCL428",?,?,?,?,?,?,?,?
73,27,"Tabuk MPA 1","Leyte","Palompon",429,11.04269014,124.3674749,"APCL429",240,240,210,218,?,?,115,115
73,27,"Tabuk MPA 1","Leyte","Palompon",430,11.0428737,124.3673151,"APCL430",240,240,210,216,256,256,111,117
73,27,"Tabuk MPA 1","Leyte","Palompon",431,11.04293726,124.3673664,"APCL431",?,?,?,?,?,?,?,?
73,27,"Tabuk MPA 1","Leyte","Palompon",432,11.04294009,124.3673823,"APCL432",240,246,207,218,?,?,111,111
73,27,"Tabuk MPA 1","Leyte","Palompon",433,11.04294009,124.3673823,"APCL433",240,240,210,210,?,?,115,115
73,27,"Tabuk MPA 1","Leyte","Palompon",434,11.04294009,124.3673823,"APCL434",240,242,216,216,?,?,111,115
73,27,"Tabuk MPA 1","Leyte","Palompon",435,11.04294009,124.3673823,"APCL435",240,240,222,229,?,?,?,?
74,27,"Tabuk MPA 2","Leyte","Palompon",436,11.04390807,124.3674224,"APCL436",238,240,209,210,?,?,115,115
74,27,"Tabuk MPA 2","Leyte","Palompon",437,11.04390807,124.3674224,"APCL437",240,242,210,218,?,?,111,111
74,27,"Tabuk MPA 2","Leyte","Palompon",438,11.04390807,124.3674224,"APCL438",240,240,210,212,256,256,111,115
